STARLINK-35830          
1 66284U 25247V   25332.16671295  .00028759  00000+0  72698-3 0  9993
2 66284  53.1599 305.8973 0001284  83.2744 118.9305 15.39588712  5278
STARLINK-35819          
1 66285U 25247W   25332.16671295  .00028840  00000+0  72916-3 0  9998
2 66285  53.1598 305.8501 0001641  84.5338 141.5759 15.39581835  5224
STARLINK-35783          
1 66286U 25247X   25332.16671295  .00028700  00000+0  72558-3 0  9996
2 66286  53.1597 305.8450 0001561  82.4762 145.4865 15.39586276  5221
STARLINK-34884          
1 66287U 25247Y   25332.16671295 -.02139585  00000+0 -56621-1 0  9996
2 66287  53.1596 305.8010 0001046  94.4749 155.8105 15.41644974  5549
STARLINK-34896          
1 66288U 25247Z   25332.16671295 -.03309724  00000+0 -87121-1 0  9991
2 66288  53.1594 305.7971 0001569 112.0651 140.0222 15.42270368  5541
STARLINK-35802          
1 66289U 25247AA  25332.16671295 -.02042640  00000+0 -48890-1 0  9992
2 66289  53.1583 305.7647 0001499  93.0795 175.3171 15.44419185  5222
STARLINK-35799          
1 66290U 25247AB  25332.16671295 -.02038322  00000+0 -48791-1 0  9996
2 66290  53.1587 305.7610 0001488  92.4717 177.8163 15.44409253  5596
STARLINK-35800          
1 66291U 25247AC  25332.18075594 -.00411727  00000+0 -82408-2 0  9995
2 66291  53.1588 305.6689 0001689 130.6563 229.4592 15.47711422  5508
STARLINK-35798          
1 66292U 25247AD  25332.18107782 -.00253042  00000+0 -49334-2 0  9996
2 66292  53.1590 305.6714 0000996 112.5800 247.5313 15.47871119  5450
LVM3 R/B                
1 66310U 25249A   25330.57454911  .00044146  75879-6  12457-2 0  9999
2 66310  21.3457 146.7634 6671519 203.0734 102.0362  3.13845511   785
CMS-03 (GSAT-7R)        
1 66311U 25249B   25332.08933713 -.00000238  00000+0  00000+0 0  9990
2 66311   0.1786 271.7559 0004334 196.4944  84.6803  1.00270490   336
YAOGAN-46               
1 66313U 25250A   25323.71050301 -.00000009  00000+0  00000+0 0  9993
2 66313  20.0323 106.9378 0049242 131.7872 228.6447  5.35115933   968
