CCSDS_OMM_VERS = 2.0
CREATION_DATE  = 
ORIGINATOR     = 

OBJECT_NAME    = STARLINK-35830
OBJECT_ID      = 2025-247V
CENTER_NAME    = EARTH
REF_FRAME      = TEME
TIME_SYSTEM    = UTC
MEAN_ELEMENT_THEORY = SGP/SGP4

EPOCH          = 2025-11-28T04:00:03.998880
MEAN_MOTION    = 15.39588712
ECCENTRICITY   = .0001284
INCLINATION    = 53.1599
RA_OF_ASC_NODE = 305.8973
ARG_OF_PERICENTER = 83.2744
MEAN_ANOMALY   = 118.9305

EPHEMERIS_TYPE = 0
CLASSIFICATION_TYPE = U
NORAD_CAT_ID   = 66284
ELEMENT_SET_NO = 999
REV_AT_EPOCH   = 527
BSTAR          = .72698E-3
MEAN_MOTION_DOT = .28759E-3
MEAN_MOTION_DDOT = 0

CCSDS_OMM_VERS = 2.0
CREATION_DATE  = 
ORIGINATOR     = 

OBJECT_NAME    = STARLINK-35819
OBJECT_ID      = 2025-247W
CENTER_NAME    = EARTH
REF_FRAME      = TEME
TIME_SYSTEM    = UTC
MEAN_ELEMENT_THEORY = SGP/SGP4

EPOCH          = 2025-11-28T04:00:03.998880
MEAN_MOTION    = 15.39581835
ECCENTRICITY   = .0001641
INCLINATION    = 53.1598
RA_OF_ASC_NODE = 305.8501
ARG_OF_PERICENTER = 84.5338
MEAN_ANOMALY   = 141.5759

EPHEMERIS_TYPE = 0
CLASSIFICATION_TYPE = U
NORAD_CAT_ID   = 66285
ELEMENT_SET_NO = 999
REV_AT_EPOCH   = 522
BSTAR          = .72916E-3
MEAN_MOTION_DOT = .2884E-3
MEAN_MOTION_DDOT = 0

CCSDS_OMM_VERS = 2.0
CREATION_DATE  = 
ORIGINATOR     = 

OBJECT_NAME    = STARLINK-35783
OBJECT_ID      = 2025-247X
CENTER_NAME    = EARTH
REF_FRAME      = TEME
TIME_SYSTEM    = UTC
MEAN_ELEMENT_THEORY = SGP/SGP4

EPOCH          = 2025-11-28T04:00:03.998880
MEAN_MOTION    = 15.39586276
ECCENTRICITY   = .0001561
INCLINATION    = 53.1597
RA_OF_ASC_NODE = 305.8450
ARG_OF_PERICENTER = 82.4762
MEAN_ANOMALY   = 145.4865

EPHEMERIS_TYPE = 0
CLASSIFICATION_TYPE = U
NORAD_CAT_ID   = 66286
ELEMENT_SET_NO = 999
REV_AT_EPOCH   = 522
BSTAR          = .72558E-3
MEAN_MOTION_DOT = .287E-3
MEAN_MOTION_DDOT = 0

CCSDS_OMM_VERS = 2.0
CREATION_DATE  = 
ORIGINATOR     = 

OBJECT_NAME    = STARLINK-34884
OBJECT_ID      = 2025-247Y
CENTER_NAME    = EARTH
REF_FRAME      = TEME
TIME_SYSTEM    = UTC
MEAN_ELEMENT_THEORY = SGP/SGP4

EPOCH          = 2025-11-28T04:00:03.998880
MEAN_MOTION    = 15.41644974
ECCENTRICITY   = .0001046
INCLINATION    = 53.1596
RA_OF_ASC_NODE = 305.8010
ARG_OF_PERICENTER = 94.4749
MEAN_ANOMALY   = 155.8105

EPHEMERIS_TYPE = 0
CLASSIFICATION_TYPE = U
NORAD_CAT_ID   = 66287
ELEMENT_SET_NO = 999
REV_AT_EPOCH   = 554
BSTAR          = -.56621E-1
MEAN_MOTION_DOT = -.2139585E-1
MEAN_MOTION_DDOT = 0

CCSDS_OMM_VERS = 2.0
CREATION_DATE  = 
ORIGINATOR     = 

OBJECT_NAME    = STARLINK-34896
OBJECT_ID      = 2025-247Z
CENTER_NAME    = EARTH
REF_FRAME      = TEME
TIME_SYSTEM    = UTC
MEAN_ELEMENT_THEORY = SGP/SGP4

EPOCH          = 2025-11-28T04:00:03.998880
MEAN_MOTION    = 15.42270368
ECCENTRICITY   = .0001569
INCLINATION    = 53.1594
RA_OF_ASC_NODE = 305.7971
ARG_OF_PERICENTER = 112.0651
MEAN_ANOMALY   = 140.0222

EPHEMERIS_TYPE = 0
CLASSIFICATION_TYPE = U
NORAD_CAT_ID   = 66288
ELEMENT_SET_NO = 999
REV_AT_EPOCH   = 554
BSTAR          = -.87121E-1
MEAN_MOTION_DOT = -.3309724E-1
MEAN_MOTION_DDOT = 0

CCSDS_OMM_VERS = 2.0
CREATION_DATE  = 
ORIGINATOR     = 

OBJECT_NAME    = STARLINK-35802
OBJECT_ID      = 2025-247AA
CENTER_NAME    = EARTH
REF_FRAME      = TEME
TIME_SYSTEM    = UTC
MEAN_ELEMENT_THEORY = SGP/SGP4

EPOCH          = 2025-11-28T04:00:03.998880
MEAN_MOTION    = 15.44419185
ECCENTRICITY   = .0001499
INCLINATION    = 53.1583
RA_OF_ASC_NODE = 305.7647
ARG_OF_PERICENTER = 93.0795
MEAN_ANOMALY   = 175.3171

EPHEMERIS_TYPE = 0
CLASSIFICATION_TYPE = U
NORAD_CAT_ID   = 66289
ELEMENT_SET_NO = 999
REV_AT_EPOCH   = 522
BSTAR          = -.4889E-1
MEAN_MOTION_DOT = -.204264E-1
MEAN_MOTION_DDOT = 0

CCSDS_OMM_VERS = 2.0
CREATION_DATE  = 
ORIGINATOR     = 

OBJECT_NAME    = STARLINK-35799
OBJECT_ID      = 2025-247AB
CENTER_NAME    = EARTH
REF_FRAME      = TEME
TIME_SYSTEM    = UTC
MEAN_ELEMENT_THEORY = SGP/SGP4

EPOCH          = 2025-11-28T04:00:03.998880
MEAN_MOTION    = 15.44409253
ECCENTRICITY   = .0001488
INCLINATION    = 53.1587
RA_OF_ASC_NODE = 305.7610
ARG_OF_PERICENTER = 92.4717
MEAN_ANOMALY   = 177.8163

EPHEMERIS_TYPE = 0
CLASSIFICATION_TYPE = U
NORAD_CAT_ID   = 66290
ELEMENT_SET_NO = 999
REV_AT_EPOCH   = 559
BSTAR          = -.48791E-1
MEAN_MOTION_DOT = -.2038322E-1
MEAN_MOTION_DDOT = 0

CCSDS_OMM_VERS = 2.0
CREATION_DATE  = 
ORIGINATOR     = 

OBJECT_NAME    = STARLINK-35800
OBJECT_ID      = 2025-247AC
CENTER_NAME    = EARTH
REF_FRAME      = TEME
TIME_SYSTEM    = UTC
MEAN_ELEMENT_THEORY = SGP/SGP4

EPOCH          = 2025-11-28T04:20:17.313216
MEAN_MOTION    = 15.47711422
ECCENTRICITY   = .0001689
INCLINATION    = 53.1588
RA_OF_ASC_NODE = 305.6689
ARG_OF_PERICENTER = 130.6563
MEAN_ANOMALY   = 229.4592

EPHEMERIS_TYPE = 0
CLASSIFICATION_TYPE = U
NORAD_CAT_ID   = 66291
ELEMENT_SET_NO = 999
REV_AT_EPOCH   = 550
BSTAR          = -.82408E-2
MEAN_MOTION_DOT = -.411727E-2
MEAN_MOTION_DDOT = 0

CCSDS_OMM_VERS = 2.0
CREATION_DATE  = 
ORIGINATOR     = 

OBJECT_NAME    = STARLINK-35798
OBJECT_ID      = 2025-247AD
CENTER_NAME    = EARTH
REF_FRAME      = TEME
TIME_SYSTEM    = UTC
MEAN_ELEMENT_THEORY = SGP/SGP4

EPOCH          = 2025-11-28T04:20:45.123648
MEAN_MOTION    = 15.47871119
ECCENTRICITY   = .0000996
INCLINATION    = 53.1590
RA_OF_ASC_NODE = 305.6714
ARG_OF_PERICENTER = 112.5800
MEAN_ANOMALY   = 247.5313

EPHEMERIS_TYPE = 0
CLASSIFICATION_TYPE = U
NORAD_CAT_ID   = 66292
ELEMENT_SET_NO = 999
REV_AT_EPOCH   = 545
BSTAR          = -.49334E-2
MEAN_MOTION_DOT = -.253042E-2
MEAN_MOTION_DDOT = 0

CCSDS_OMM_VERS = 2.0
CREATION_DATE  = 
ORIGINATOR     = 

OBJECT_NAME    = LVM3 R/B
OBJECT_ID      = 2025-249A
CENTER_NAME    = EARTH
REF_FRAME      = TEME
TIME_SYSTEM    = UTC
MEAN_ELEMENT_THEORY = SGP/SGP4

EPOCH          = 2025-11-26T13:47:21.043104
MEAN_MOTION    = 3.13845511
ECCENTRICITY   = .6671519
INCLINATION    = 21.3457
RA_OF_ASC_NODE = 146.7634
ARG_OF_PERICENTER = 203.0734
MEAN_ANOMALY   = 102.0362

EPHEMERIS_TYPE = 0
CLASSIFICATION_TYPE = U
NORAD_CAT_ID   = 66310
ELEMENT_SET_NO = 999
REV_AT_EPOCH   = 78
BSTAR          = .12457E-2
MEAN_MOTION_DOT = .44146E-3
MEAN_MOTION_DDOT = .75879E-6

CCSDS_OMM_VERS = 2.0
CREATION_DATE  = 
ORIGINATOR     = 

OBJECT_NAME    = CMS-03 (GSAT-7R)
OBJECT_ID      = 2025-249B
CENTER_NAME    = EARTH
REF_FRAME      = TEME
TIME_SYSTEM    = UTC
MEAN_ELEMENT_THEORY = SGP/SGP4

EPOCH          = 2025-11-28T02:08:38.728032
MEAN_MOTION    = 1.00270490
ECCENTRICITY   = .0004334
INCLINATION    = 0.1786
RA_OF_ASC_NODE = 271.7559
ARG_OF_PERICENTER = 196.4944
MEAN_ANOMALY   = 84.6803

EPHEMERIS_TYPE = 0
CLASSIFICATION_TYPE = U
NORAD_CAT_ID   = 66311
ELEMENT_SET_NO = 999
REV_AT_EPOCH   = 33
BSTAR          = 0
MEAN_MOTION_DOT = -.238E-5
MEAN_MOTION_DDOT = 0

CCSDS_OMM_VERS = 2.0
CREATION_DATE  = 
ORIGINATOR     = 

OBJECT_NAME    = YAOGAN-46
OBJECT_ID      = 2025-250A
CENTER_NAME    = EARTH
REF_FRAME      = TEME
TIME_SYSTEM    = UTC
MEAN_ELEMENT_THEORY = SGP/SGP4

EPOCH          = 2025-11-19T17:03:07.460064
MEAN_MOTION    = 5.35115933
ECCENTRICITY   = .00492424
INCLINATION    = 20.0323
RA_OF_ASC_NODE = 106.9378
ARG_OF_PERICENTER = 131.7872
MEAN_ANOMALY   = 228.6447

EPHEMERIS_TYPE = 0
CLASSIFICATION_TYPE = U
NORAD_CAT_ID   = 66313
ELEMENT_SET_NO = 999
REV_AT_EPOCH   = 96
BSTAR          = 0
MEAN_MOTION_DOT = -.9E-7
MEAN_MOTION_DDOT = 0

